O3B MPOWER F1           
1 54755U 22174A   23196.80356740 -.00000027  00000+0  00000+0 0  9994
2 54755   0.0385   9.6207 0002854 184.2922 302.9669  5.00112110 11946
